SL-14 R/B               
1 21423U 91042B   26051.53855942  .00000375  00000+0  44520-4 0  9996
2 21423  82.4896 236.2680 0015708 300.1615  59.8042 14.81810792850535
ERS-1                   
1 21574U 91050A   26051.66705548  .00000251  00000+0  94986-4 0  9996
2 21574  98.7893  69.4735 0030927 252.1948 107.5863 14.39434607813284
INTERCOSMOS 25          
1 21819U 91086A   26051.73308207  .00000779  00000+0  14708-3 0  9994
2 21819  82.6079 320.2551 1487015 153.4588 215.1166 12.11948054494636
SL-8 R/B                
1 21938U 92020B   26051.75374109  .00000094  00000+0  81824-4 0  9995
2 21938  82.9341 166.3317 0028472 347.6345 121.8570 13.75547186698806
COSMOS 2219             
1 22219U 92076A   26051.54380990  .00000286  00000+0  17451-3 0  9998
2 22219  71.0588  53.9112 0019803 230.0498 129.8886 14.14080512715950
SL-16 R/B               
1 22220U 92076B   26051.75855020  .00000016  00000+0  31686-4 0  9992
2 22220  70.9978 224.0376 0011096 127.5199 323.8282 14.16854735719431
COSMOS 2221             
1 22236U 92080A   26051.71687168  .00001539  00000+0  13437-3 0  9990
2 22236  82.5037 295.3387 0012888 248.4889 111.4960 14.96130375778259
SL-16 R/B               
1 22285U 92093B   26051.42532733  .00000292  00000+0  17365-3 0  9992
2 22285  71.0216  40.5077 0005663 312.2456  47.8186 14.15446345710711
COSMOS 2228             
1 22286U 92094A   26051.74437133  .00001645  00000+0  13994-3 0  9994
2 22286  82.5145 253.5381 0018102   3.6282 356.5068 14.97102121773522
