CCSDS_OMM_VERS = 2.0
CREATION_DATE  = 
ORIGINATOR     = 

OBJECT_NAME    = SL-14 R/B
OBJECT_ID      = 1991-042B
CENTER_NAME    = EARTH
REF_FRAME      = TEME
TIME_SYSTEM    = UTC
MEAN_ELEMENT_THEORY = SGP/SGP4

EPOCH          = 2026-02-20T12:55:31.533888
MEAN_MOTION    = 14.81810792
ECCENTRICITY   = .0015708
INCLINATION    = 82.4896
RA_OF_ASC_NODE = 236.2680
ARG_OF_PERICENTER = 300.1615
MEAN_ANOMALY   = 59.8042

EPHEMERIS_TYPE = 0
CLASSIFICATION_TYPE = U
NORAD_CAT_ID   = 21423
ELEMENT_SET_NO = 999
REV_AT_EPOCH   = 85053
BSTAR          = .4452E-4
MEAN_MOTION_DOT = .375E-5
MEAN_MOTION_DDOT = 0

CCSDS_OMM_VERS = 2.0
CREATION_DATE  = 
ORIGINATOR     = 

OBJECT_NAME    = ERS-1
OBJECT_ID      = 1991-050A
CENTER_NAME    = EARTH
REF_FRAME      = TEME
TIME_SYSTEM    = UTC
MEAN_ELEMENT_THEORY = SGP/SGP4

EPOCH          = 2026-02-20T16:00:33.593472
MEAN_MOTION    = 14.39434607
ECCENTRICITY   = .0030927
INCLINATION    = 98.7893
RA_OF_ASC_NODE = 69.4735
ARG_OF_PERICENTER = 252.1948
MEAN_ANOMALY   = 107.5863

EPHEMERIS_TYPE = 0
CLASSIFICATION_TYPE = U
NORAD_CAT_ID   = 21574
ELEMENT_SET_NO = 999
REV_AT_EPOCH   = 81328
BSTAR          = .94986E-4
MEAN_MOTION_DOT = .251E-5
MEAN_MOTION_DDOT = 0

CCSDS_OMM_VERS = 2.0
CREATION_DATE  = 
ORIGINATOR     = 

OBJECT_NAME    = INTERCOSMOS 25
OBJECT_ID      = 1991-086A
CENTER_NAME    = EARTH
REF_FRAME      = TEME
TIME_SYSTEM    = UTC
MEAN_ELEMENT_THEORY = SGP/SGP4

EPOCH          = 2026-02-20T17:35:38.290848
MEAN_MOTION    = 12.11948054
ECCENTRICITY   = .1487015
INCLINATION    = 82.6079
RA_OF_ASC_NODE = 320.2551
ARG_OF_PERICENTER = 153.4588
MEAN_ANOMALY   = 215.1166

EPHEMERIS_TYPE = 0
CLASSIFICATION_TYPE = U
NORAD_CAT_ID   = 21819
ELEMENT_SET_NO = 999
REV_AT_EPOCH   = 49463
BSTAR          = .14708E-3
MEAN_MOTION_DOT = .779E-5
MEAN_MOTION_DDOT = 0

CCSDS_OMM_VERS = 2.0
CREATION_DATE  = 
ORIGINATOR     = 

OBJECT_NAME    = SL-8 R/B
OBJECT_ID      = 1992-020B
CENTER_NAME    = EARTH
REF_FRAME      = TEME
TIME_SYSTEM    = UTC
MEAN_ELEMENT_THEORY = SGP/SGP4

EPOCH          = 2026-02-20T18:05:23.230176
MEAN_MOTION    = 13.75547186
ECCENTRICITY   = .0028472
INCLINATION    = 82.9341
RA_OF_ASC_NODE = 166.3317
ARG_OF_PERICENTER = 347.6345
MEAN_ANOMALY   = 121.8570

EPHEMERIS_TYPE = 0
CLASSIFICATION_TYPE = U
NORAD_CAT_ID   = 21938
ELEMENT_SET_NO = 999
REV_AT_EPOCH   = 69880
BSTAR          = .81824E-4
MEAN_MOTION_DOT = .94E-6
MEAN_MOTION_DDOT = 0

CCSDS_OMM_VERS = 2.0
CREATION_DATE  = 
ORIGINATOR     = 

OBJECT_NAME    = COSMOS 2219
OBJECT_ID      = 1992-076A
CENTER_NAME    = EARTH
REF_FRAME      = TEME
TIME_SYSTEM    = UTC
MEAN_ELEMENT_THEORY = SGP/SGP4

EPOCH          = 2026-02-20T13:03:05.175360
MEAN_MOTION    = 14.14080512
ECCENTRICITY   = .0019803
INCLINATION    = 71.0588
RA_OF_ASC_NODE = 53.9112
ARG_OF_PERICENTER = 230.0498
MEAN_ANOMALY   = 129.8886

EPHEMERIS_TYPE = 0
CLASSIFICATION_TYPE = U
NORAD_CAT_ID   = 22219
ELEMENT_SET_NO = 999
REV_AT_EPOCH   = 71595
BSTAR          = .17451E-3
MEAN_MOTION_DOT = .286E-5
MEAN_MOTION_DDOT = 0

CCSDS_OMM_VERS = 2.0
CREATION_DATE  = 
ORIGINATOR     = 

OBJECT_NAME    = SL-16 R/B
OBJECT_ID      = 1992-076B
CENTER_NAME    = EARTH
REF_FRAME      = TEME
TIME_SYSTEM    = UTC
MEAN_ELEMENT_THEORY = SGP/SGP4

EPOCH          = 2026-02-20T18:12:18.737280
MEAN_MOTION    = 14.16854735
ECCENTRICITY   = .0011096
INCLINATION    = 70.9978
RA_OF_ASC_NODE = 224.0376
ARG_OF_PERICENTER = 127.5199
MEAN_ANOMALY   = 323.8282

EPHEMERIS_TYPE = 0
CLASSIFICATION_TYPE = U
NORAD_CAT_ID   = 22220
ELEMENT_SET_NO = 999
REV_AT_EPOCH   = 71943
BSTAR          = .31686E-4
MEAN_MOTION_DOT = .16E-6
MEAN_MOTION_DDOT = 0

CCSDS_OMM_VERS = 2.0
CREATION_DATE  = 
ORIGINATOR     = 

OBJECT_NAME    = COSMOS 2221
OBJECT_ID      = 1992-080A
CENTER_NAME    = EARTH
REF_FRAME      = TEME
TIME_SYSTEM    = UTC
MEAN_ELEMENT_THEORY = SGP/SGP4

EPOCH          = 2026-02-20T17:12:17.713152
MEAN_MOTION    = 14.96130375
ECCENTRICITY   = .0012888
INCLINATION    = 82.5037
RA_OF_ASC_NODE = 295.3387
ARG_OF_PERICENTER = 248.4889
MEAN_ANOMALY   = 111.4960

EPHEMERIS_TYPE = 0
CLASSIFICATION_TYPE = U
NORAD_CAT_ID   = 22236
ELEMENT_SET_NO = 999
REV_AT_EPOCH   = 77825
BSTAR          = .13437E-3
MEAN_MOTION_DOT = .1539E-4
MEAN_MOTION_DDOT = 0

CCSDS_OMM_VERS = 2.0
CREATION_DATE  = 
ORIGINATOR     = 

OBJECT_NAME    = SL-16 R/B
OBJECT_ID      = 1992-093B
CENTER_NAME    = EARTH
REF_FRAME      = TEME
TIME_SYSTEM    = UTC
MEAN_ELEMENT_THEORY = SGP/SGP4

EPOCH          = 2026-02-20T10:12:28.281312
MEAN_MOTION    = 14.15446345
ECCENTRICITY   = .0005663
INCLINATION    = 71.0216
RA_OF_ASC_NODE = 40.5077
ARG_OF_PERICENTER = 312.2456
MEAN_ANOMALY   = 47.8186

EPHEMERIS_TYPE = 0
CLASSIFICATION_TYPE = U
NORAD_CAT_ID   = 22285
ELEMENT_SET_NO = 999
REV_AT_EPOCH   = 71071
BSTAR          = .17365E-3
MEAN_MOTION_DOT = .292E-5
MEAN_MOTION_DDOT = 0

CCSDS_OMM_VERS = 2.0
CREATION_DATE  = 
ORIGINATOR     = 

OBJECT_NAME    = COSMOS 2228
OBJECT_ID      = 1992-094A
CENTER_NAME    = EARTH
REF_FRAME      = TEME
TIME_SYSTEM    = UTC
MEAN_ELEMENT_THEORY = SGP/SGP4

EPOCH          = 2026-02-20T17:51:53.682912
MEAN_MOTION    = 14.97102121
ECCENTRICITY   = .0018102
INCLINATION    = 82.5145
RA_OF_ASC_NODE = 253.5381
ARG_OF_PERICENTER = 3.6282
MEAN_ANOMALY   = 356.5068

EPHEMERIS_TYPE = 0
CLASSIFICATION_TYPE = U
NORAD_CAT_ID   = 22286
ELEMENT_SET_NO = 999
REV_AT_EPOCH   = 77352
BSTAR          = .13994E-3
MEAN_MOTION_DOT = .1645E-4
MEAN_MOTION_DDOT = 0

